GLOBALSTAR M084         
1 38040U 11080A   24312.42480336 -.00000058  00000+0  25547-3 0  9996
2 38040  52.0033   3.5999 0000085 120.0375 253.0290 12.62270063594666
GLOBALSTAR M080         
1 38041U 11080B   24312.39850046 -.00000059  00000+0  25075-3 0  9999
2 38041  52.0087   5.2099 0000309 190.2849 182.6975 12.62268058594781
GLOBALSTAR M082         
1 38042U 11080C   24312.60159807 -.00000066  00000+0  21269-3 0  9990
2 38042  52.0087 320.0147 0000858  66.9779  89.6157 12.62269209595513
GLOBALSTAR M092         
1 38043U 11080D   24312.31083490 -.00000069  00000+0  19513-3 0  9995
2 38043  52.0102  51.2606 0000552 104.3277 290.4877 12.62269120593933
GLOBALSTAR M090         
1 38044U 11080E   24312.38923101 -.00000068  00000+0  19922-3 0  9998
2 38044  51.9893 314.7543 0000610  74.8444  76.6517 12.62270264595600
GLOBALSTAR M086         
1 38045U 11080F   24312.57425980 -.00000061  00000+0  23771-3 0  9992
2 38045  51.9907 314.7239 0000805 166.1191 347.1467 12.62269706595574
GLOBALSTAR M097         
1 39072U 13005A   24312.17141121 -.00000062  00000+0  23078-3 0  9991
2 39072  52.0045 230.2730 0000855  83.3444 276.7520 12.62266876542770
GLOBALSTAR M093         
1 39073U 13005B   24312.46140017 -.00000057  00000+0  26318-3 0  9991
2 39073  51.9808 223.0460 0001001  82.2887 277.8093 12.62267197542762
